ONEWEB-0120             
1 47266U 20100J   25062.54072250 -.00000418  00000+0 -11988-2 0  9991
2 47266  87.8806  84.3615 0001834  88.3066 271.8273 13.12440361202995
ONEWEB-0121             
1 47267U 20100K   25062.52925124 -.00000068  00000+0 -22308-3 0  9997
2 47267  87.8799  84.3412 0002032  93.0694 267.0667 13.12441792202907
ONEWEB-0122             
1 47268U 20100L   25062.60047055  .00000103  00000+0  25073-3 0  9995
2 47268  87.8799  84.3321 0002002  88.5482 271.5876 13.12444461202827
ONEWEB-0123             
1 47269U 20100M   25062.59575905  .00000289  00000+0  76894-3 0  9996
2 47269  87.8802  84.3560 0001803  91.5057 268.6279 13.12441621202962
ONEWEB-0124             
1 47270U 20100N   25062.58441271  .00000388  00000+0  10440-2 0  9999
2 47270  87.8802  84.3558 0001986  98.0183 262.1171 13.12442197202841
ONEWEB-0125             
1 47271U 20100P   25062.56168723 -.00000059  00000+0 -19836-3 0  9992
2 47271  87.8805  84.3220 0001725 100.9484 259.1838 13.12444356202901
ONEWEB-0126             
1 47272U 20100Q   25062.58684341  .00000425  00000+0  11468-2 0  9991
2 47272  87.8801  84.3132 0001839  87.3646 272.7693 13.12442715202978
ONEWEB-0127             
1 47273U 20100R   25062.47247939 -.00000417  00000+0 -11936-2 0  9991
2 47273  87.8805  84.3730 0001938  88.0272 272.1079 13.12441978202983
